NORAD_CAT_ID,OBJECT_NAME,OBJECT_TYPE,EPOCH,MEAN_MOTION,ECCENTRICITY,INCLINATION,RA_OF_ASC_NODE,ARG_OF_PERICENTER,MEAN_ANOMALY,BSTAR,MEAN_MOTION_DOT,MEAN_MOTION_DDOT,TLE_LINE0,TLE_LINE1,TLE_LINE2,SEMIMAJOR_AXIS,PERIOD,APOGEE,PERIGEE,DECAYED
51880.0,STARLINK-3566,PAYLOAD,2023-01-15 15:06:54,15.08850012,0.0001886999999999,53.213,127.4505,82.3936,277.72700000000003,0.00047664,7.308e-05,0.0,0 STARLINK-3566,1 51880U 22022AE  23015.62979574  .00007308  00000-0  47664-3 0  9998,2 51880  53.2130 127.4505 0001887  82.3936 277.7270 15.08850012 49642,6917.85,95.437,541.02,538.409,0.0
51880.0,STARLINK-3566,PAYLOAD,2023-01-16 00:39:13,15.08848173,0.0002108,53.214,125.6668,74.0457,286.0768,0.00040695,6.196e-05,0.0,0 STARLINK-3566,1 51880U 22022AE  23016.02723854  .00006196  00000-0  40695-3 0  9992,2 51880  53.2140 125.6668 0002108  74.0457 286.0768 15.08848173 49703,6917.855,95.437,541.179,538.262,0.0
51880.0,STARLINK-3566,PAYLOAD,2023-01-16 13:22:18,15.08851492,0.0002126,53.2143,123.2858,88.4372,271.6864,0.0003536,5.346e-05,0.0,0 STARLINK-3566,1 51880U 22022AE  23016.55715589  .00005346  00000-0  35360-3 0  9995,2 51880  53.2143 123.2858 0002126  88.4372 271.6864 15.08851492 49789,6917.845,95.437,541.181,538.24,0.0
51880.0,STARLINK-3566,PAYLOAD,2023-01-16 16:33:04,15.08858797,0.0002144,53.2144,122.6908,87.6433,272.4804,0.00055277,8.525e-05,0.0,0 STARLINK-3566,1 51880U 22022AE  23016.68963340  .00008525  00000-0  55277-3 0  9990,2 51880  53.2144 122.6908 0002144  87.6433 272.4804 15.08858797 49809,6917.823,95.436,541.1709999999999,538.205,0.0
51880.0,STARLINK-3566,PAYLOAD,2023-01-17 06:51:33,15.08826718,0.0002295999999999,53.2139,120.0158,96.319,263.8064,-0.00022317,-3.837e-05,0.0,0 STARLINK-3566,1 51880U 22022AE  23017.28580648 -.00003837  00000-0 -22317-3 0  9995,2 51880  53.2139 120.0158 0002296  96.3190 263.8064 15.08826718 49896,6917.920999999999,95.438,541.374,538.198,0.0
51880.0,STARLINK-3566,PAYLOAD,2023-01-17 13:13:06,15.08814709,0.0002222,53.2145,118.827,99.2004,260.9239,-0.00026656,-4.525e-05,0.0,0 STARLINK-3566,1 51880U 22022AE  23017.55077202 -.00004525  00000-0 -26656-3 0  9997,2 51880  53.2145 118.8270 0002222  99.2004 260.9239 15.08814709 49932,6917.9580000000005,95.439,541.36,538.286,0.0
51880.0,STARLINK-3566,PAYLOAD,2023-01-17 14:48:29,15.08827111,0.0002063,53.2141,118.5291,92.6721,267.4508,7.7105e-05,9.39e-06,0.0,0 STARLINK-3566,1 51880U 22022AE  23017.61701112  .00000939  00000-0  77105-4 0  9997,2 51880  53.2141 118.5291 0002063  92.6721 267.4508 15.08827111 49947,6917.92,95.438,541.212,538.3580000000001,0.0
51880.0,STARLINK-3566,PAYLOAD,2023-01-18 06:42:21,15.08852646,0.0002083,53.2147,115.5554,96.8236,263.2993,0.0017434,0.00027577,0.0,0 STARLINK-3566,1 51880U 22022AE  23018.27941587  .00027577  00000-0  17434-2 0  9996,2 51880  53.2147 115.5554 0002083  96.8236 263.2993 15.08852646 50047,6917.842,95.437,541.148,538.266,0.0
51880.0,STARLINK-3566,PAYLOAD,2023-01-18 13:03:53,15.08882457,0.0002070999999999,53.2148,114.366,94.3688,265.7541,0.0026213,0.00041726,0.0,0 STARLINK-3566,1 51880U 22022AE  23018.54437003  .00041726  00000-0  26213-2 0  9996,2 51880  53.2148 114.3660 0002071  94.3688 265.7541 15.08882457 50087,6917.751,95.435,541.048,538.183,0.0
51880.0,STARLINK-3566,PAYLOAD,2023-01-19 06:33:07,15.08872801,5.95e-05,53.215,111.0952,13.7469,346.3539,0.0016784,0.00026549,0.0,0 STARLINK-3566,1 51880U 22022AE  23019.27300471  .00026549  00000-0  16784-2 0  9993,2 51880  53.2150 111.0952 0000595  13.7469 346.3539 15.08872801 50196,6917.78,95.435,540.057,539.234,0.0
51880.0,STARLINK-3566,PAYLOAD,2023-01-19 12:54:39,15.08876572,0.0001664,53.2151,109.9058,105.1427,254.9749,0.0021459,0.00034064,0.0,0 STARLINK-3566,1 51880U 22022AE  23019.53795856  .00034064  00000-0  21459-2 0  9993,2 51880  53.2151 109.9058 0001664 105.1427 254.9749 15.08876572 50239,6917.769,95.435,540.785,538.482,0.0
51880.0,STARLINK-3566,PAYLOAD,2023-01-19 22:26:58,15.08850412,0.0002921,53.2154,108.1217,87.2839,272.8488,0.0022967,0.00036466,0.0,0 STARLINK-3566,1 51880U 22022AE  23019.93540092  .00036466  00000-0  22967-2 0  9990,2 51880  53.2154 108.1217 0002921  87.2839 272.8488 15.08850412 50294,6917.849,95.437,541.734,537.693,0.0
51880.0,STARLINK-3566,PAYLOAD,2023-01-20 12:45:26,15.08841662,0.0001984,53.2169,105.4481,99.6895,260.4322,0.00074246,0.00011549,0.0,0 STARLINK-3566,1 51880U 22022AE  23020.53156193  .00011549  00000-0  74246-3 0  9996,2 51880  53.2169 105.4481 0001984  99.6895 260.4322 15.08841662 50387,6917.875,95.437,541.113,538.368,0.0
51880.0,STARLINK-3566,PAYLOAD,2023-01-20 22:17:46,15.08840233,0.0002149,53.2158,103.6614,88.553,271.5709,0.0012114,0.00019044,0.0,0 STARLINK-3566,1 51880U 22022AE  23020.92900691  .00019044  00000-0  12114-2 0  9992,2 51880  53.2158 103.6614 0002149  88.5530 271.5709 15.08840233 50442,6917.88,95.438,541.231,538.258,0.0
51880.0,STARLINK-3566,PAYLOAD,2023-01-21 11:00:51,15.08845136,0.0001797,53.2152,101.2841,87.47,272.6497,0.0010850999999999,0.00017026,0.0,0 STARLINK-3566,1 51880U 22022AE  23021.45892695  .00017026  00000-0  10851-2 0  9999,2 51880  53.2152 101.2841 0001797  87.4700 272.6497 15.08845136 50529,6917.865,95.437,540.9730000000001,538.487,0.0
51880.0,STARLINK-3566,PAYLOAD,2023-01-22 14:02:26,15.08813065,0.0001575999999999,53.2151,96.2277,107.9389,252.1775,-3.1993000000000004e-05,-7.97e-06,0.0,0 STARLINK-3566,1 51880U 22022AE  23022.58502495 -.00000797  00000-0 -31993-4 0  9991,2 51880  53.2151  96.2277 0001576 107.9389 252.1775 15.08813065 50696,6917.963000000001,95.439,540.918,538.737,0.0
51880.0,STARLINK-3566,PAYLOAD,2023-01-23 04:20:54,15.08837854,0.000157,53.215,93.5499,116.2264,243.889,0.001276,0.00020077,0.0,0 STARLINK-3566,1 51880U 22022AE  23023.18118928  .00020077  00000-0  12760-2 0  9992,2 51880  53.2150  93.5499 0001570 116.2264 243.8890 15.08837854 50787,6917.887,95.438,540.8380000000001,538.6659999999999,0.0
51880.0,STARLINK-3566,PAYLOAD,2023-01-23 12:17:49,15.0887682,0.0001672,53.214,92.0647,107.822,252.2955,0.0021896999999999,0.00034769,0.0,0 STARLINK-3566,1 51880U 22022AE  23023.51238260  .00034769  00000-0  21897-2 0  9995,2 51880  53.2140  92.0647 0001672 107.8220 252.2955 15.08876820 50834,6917.768,95.435,540.789,538.476,0.0
51880.0,STARLINK-3566,PAYLOAD,2023-01-24 04:11:40,15.08856039,0.0001071,53.2139,89.0903,84.176,275.9354,0.00093521,0.00014634,0.0,0 STARLINK-3566,1 51880U 22022AE  23024.17477931  .00014634  00000-0  93521-3 0  9991,2 51880  53.2139  89.0903 0001071  84.1760 275.9354 15.08856039 50938,6917.831,95.437,540.437,538.955,0.0
51880.0,STARLINK-3566,PAYLOAD,2023-01-24 23:16:18,15.08856074,0.000212,53.2143,85.5227,113.3933,246.7282,0.0011139,0.00017492,0.0,0 STARLINK-3566,1 51880U 22022AE  23024.96965627  .00017492  00000-0  11139-2 0  9991,2 51880  53.2143  85.5227 0002120 113.3933 246.7282 15.08856074 51055,6917.831,95.437,541.163,538.23,0.0
51880.0,STARLINK-3566,PAYLOAD,2023-01-25 13:34:46,15.0884612,0.0001358,53.2146,82.845,82.5443,277.5703,0.0018684,0.00029578,0.0,0 STARLINK-3566,1 51880U 22022AE  23025.56582134  .00029578  00000-0  18684-2 0  9996,2 51880  53.2146  82.8450 0001358  82.5443 277.5703 15.08846120 51142,6917.861999999999,95.437,540.6659999999999,538.7869999999999,0.0
51880.0,STARLINK-3566,PAYLOAD,2023-01-26 07:04:01,15.0885825,0.0001460999999999,53.215,79.5725,83.7974,276.3184,0.00097755,0.00015312,0.0,0 STARLINK-3566,1 51880U 22022AE  23026.29445759  .00015312  00000-0  97755-3 0  9996,2 51880  53.2150  79.5725 0001461  83.7974 276.3184 15.08858250 51251,6917.825,95.436,540.7,538.679,0.0
51880.0,STARLINK-3566,PAYLOAD,2023-01-26 08:39:24,15.08859975,0.0001412,53.2145,79.2754,83.7498,276.3655,0.00094337,0.00014766,0.0,0 STARLINK-3566,1 51880U 22022AE  23026.36069677  .00014766  00000-0  94337-3 0  9990,2 51880  53.2145  79.2754 0001412  83.7498 276.3655 15.08859975 51260,6917.819,95.436,540.661,538.7080000000001,0.0
51880.0,STARLINK-3566,PAYLOAD,2023-01-26 19:47:05,15.08856746,0.0001593,53.2151,77.1938,63.9799,296.1357,0.00046229,7.08e-05,0.0,0 STARLINK-3566,1 51880U 22022AE  23026.82437410  .00007080  00000-0  46229-3 0  9993,2 51880  53.2151  77.1938 0001593  63.9799 296.1357 15.08856746 51332,6917.829000000001,95.436,540.7959999999999,538.592,0.0
51880.0,STARLINK-3566,PAYLOAD,2023-01-27 08:30:10,15.08844626,0.0001205999999999,53.2152,74.8162,92.3114,267.8016,2.0134e-05,3.3e-07,0.0,0 STARLINK-3566,1 51880U 22022AE  23027.35429385  .00000033  00000-0  20134-4 0  9993,2 51880  53.2152  74.8162 0001206  92.3114 267.8016 15.08844626 51414,6917.866,95.437,540.566,538.8969999999999,0.0
51880.0,STARLINK-3566,PAYLOAD,2023-01-27 19:37:53,15.08841327,0.0001179,53.2152,72.7345,94.2065,265.9062,0.00015958,2.253e-05,0.0,0 STARLINK-3566,1 51880U 22022AE  23027.81797489  .00002253  00000-0  15958-3 0  9990,2 51880  53.2152  72.7345 0001179  94.2065 265.9062 15.08841327 51481,6917.876,95.437,540.557,538.9259999999999,0.0
51880.0,STARLINK-3566,PAYLOAD,2023-01-28 11:31:44,15.08842362,0.0001484,53.2163,69.7611,115.1125,245.0021,-2.0206e-05,-6.1e-06,0.0,0 STARLINK-3566,1 51880U 22022AE  23028.48037515 -.00000610  00000-0 -20206-4 0  9991,2 51880  53.2163  69.7611 0001484 115.1125 245.0021 15.08842362 51589,6917.873,95.437,540.765,538.712,0.0
51880.0,STARLINK-3566,PAYLOAD,2023-01-28 19:28:40,15.08840843,0.0001247,53.2154,68.274,93.0772,267.0363,0.00010169,1.331e-05,0.0,0 STARLINK-3566,1 51880U 22022AE  23028.81157732  .00001331  00000-0  10169-3 0  9997,2 51880  53.2154  68.2740 0001247  93.0772 267.0363 15.08840843 51636,6917.878,95.438,540.605,538.88,0.0
51880.0,STARLINK-3566,PAYLOAD,2023-01-29 01:50:12,15.08838981,0.0001086,53.2151,67.0851,93.6642,266.4475,0.00015836,2.233e-05,0.0,0 STARLINK-3566,1 51880U 22022AE  23029.07653912  .00002233  00000-0  15836-3 0  9995,2 51880  53.2151  67.0851 0001086  93.6642 266.4475 15.08838981 51677,6917.884,95.438,540.5,538.997,0.0
